[{"OBJECT_NAME":"STARLINK-3590","OBJECT_ID":"2022-022R","EPOCH":"2026-03-09T00:47:28.658976","MEAN_MOTION":15.08832415,"ECCENTRICITY":0.00015489,"INCLINATION":53.2184,"RA_OF_ASC_NODE":12.0702,"ARG_OF_PERICENTER":83.0577,"MEAN_ANOMALY":277.0592,"EPHEMERIS_TYPE":0,"CLASSIFICATION_TYPE":"U","NORAD_CAT_ID":51867,"ELEMENT_SET_NO":999,"REV_AT_EPOCH":22301,"BSTAR":0.00014374013,"MEAN_MOTION_DOT":2.0e-5,"MEAN_MOTION_DDOT":0},{"OBJECT_NAME":"CZ-4C DEB","OBJECT_ID":"2018-031H","EPOCH":"2026-03-09T10:10:58.582560","MEAN_MOTION":15.14033759,"ECCENTRICITY":0.00199639,"INCLINATION":98.1663,"RA_OF_ASC_NODE":242.9335,"ARG_OF_PERICENTER":272.748,"MEAN_ANOMALY":87.1465,"EPHEMERIS_TYPE":0,"CLASSIFICATION_TYPE":"U","NORAD_CAT_ID":43266,"ELEMENT_SET_NO":999,"REV_AT_EPOCH":43166,"BSTAR":0.00079064643,"MEAN_MOTION_DOT":0.00014379,"MEAN_MOTION_DDOT":0}]
